STARLINK-6032           
1 57371U 23099AV  24091.14867550  .00004031  00000+0  31322-3 0  9999
2 57371  43.0007 125.9520 0000789 269.0526  91.0226 15.02543899 40377
STARLINK-5975           
1 57372U 23099AW  24091.45997394  .00006824  00000+0  51952-3 0  9997
2 57372  43.0010 123.9781 0001137 261.5584  98.5129 15.02549046 40260
STARLINK-6370           
1 57373U 23099AX  24090.80630327  .00002179  00000+0  17636-3 0  9996
2 57373  43.0013 127.6822 0001260 275.5021  84.5677 15.02533080 39632
STARLINK-6369           
1 57374U 23099AY  24091.43815107  .00000302  00000+0  37439-4 0  9998
2 57374  43.0037 111.6660 0001207 265.8117  94.2588 15.02536929 40615
STARLINK-6363           
1 57375U 23099AZ  24091.46663602  .00004485  00000+0  34677-3 0  9999
2 57375  43.0015 124.0362 0001243 267.9907  92.0793 15.02543694 40474
STARLINK-6367           
1 57376U 23099BA  24091.45664790  .00001060  00000+0  93567-4 0  9998
2 57376  43.0026 123.9601 0001313 261.1418  98.9276 15.02532465 40477
STARLINK-6358           
1 57377U 23099BB  24090.79630609 -.00000977  00000+0 -57248-4 0  9991
2 57377  43.0026 127.6060 0001253 268.4945  91.5754 15.02542441 39637
STARLINK-6364           
1 57378U 23099BC  24090.75032041 -.00000665  00000+0 -34134-4 0  9997
2 57378  43.0020 102.1077 0001104 267.8968  92.1748 15.02539193 40666
STARLINK-6361           
1 57379U 23099BD  24090.79297862  .00000580  00000+0  57972-4 0  9995
2 57379  43.0008 127.5836 0001039 264.3219  95.7505 15.02542142 39638
STARLINK-6366           
1 57380U 23099BE  24090.74920987  .00002829  00000+0  22440-3 0  9992
2 57380  42.9998 102.0932 0001295 273.4418  86.6276 15.02540933 40651
STARLINK-6371           
1 57381U 23099BF  24091.13894227  .00009180  00000+0  69358-3 0  9990
2 57381  43.0028 112.8603 0001461 263.0541  97.0135 15.02543536 40572
STARLINK-30240          
1 57404U 23102A   24090.83711557  .00001486  00000+0  12502-3 0  9991
2 57404  43.0012 140.8286 0000639 215.3725 144.7075 15.02545241 39609
STARLINK-30192          
1 57405U 23102B   24091.16616418  .00008180  00000+0  61971-3 0  9991
2 57405  43.0022 138.9819 0001125 268.8269  91.2444 15.02545821 39653
STARLINK-30195          
1 57406U 23102C   24091.16283849  .00019787  00000+0  14751-2 0  9998
2 57406  43.0012 138.9781 0000377 263.5334  96.5466 15.02551474 39657
STARLINK-30207          
1 57407U 23102D   24090.79741574  .00001862  00000+0  15287-3 0  9992
2 57407  43.0022 127.6070 0001333 262.5111  97.5580 15.02538936 39768
STARLINK-30205          
1 57408U 23102E   24090.82045945  .00010845  00000+0  81661-3 0  9996
2 57408  43.0025 140.7073 0001380 276.8529  83.2156 15.02538437 39604
STARLINK-30222          
1 57409U 23102F   24091.20934072  .00003271  00000+0  25711-3 0  9997
2 57409  43.0006 138.4657 0000827 256.1191 103.9559 15.02528555 39660
STARLINK-30172          
1 57410U 23102G   24091.14951331  .00001164  00000+0  10125-3 0  9991
2 57410  43.0010 138.8580 0001157 245.2449 114.8273 15.02536904 39658
STARLINK-30214          
1 57411U 23102H   24091.51841966  .00007601  00000+0  57737-3 0  9997
2 57411  43.0025 136.4911 0001012 281.9032  78.1697 15.02522902 39703
STARLINK-30182          
1 57412U 23102J   24090.81379652  .00004456  00000+0  34467-3 0  9998
2 57412  43.0036 140.6552 0001205 251.7882 108.2829 15.02541040 39601
STARLINK-30191          
1 57413U 23102K   24091.53506430  .00009140  00000+0  69070-3 0  9998
2 57413  43.0018 136.6086 0001160 283.2230  76.8483 15.02540700 39716
STARLINK-30193          
1 57414U 23102L   24091.20600429  .00002580  00000+0  20598-3 0  9999
2 57414  42.9994 138.4362 0000848 270.8771  89.1974 15.02541316 39669
STARLINK-30208          
1 57415U 23102M   24091.13286565  .00008442  00000+0  63909-3 0  9999
2 57415  42.9998 138.7483 0000662 276.1132  83.9635 15.02544100 39441
STARLINK-30224          
1 57416U 23102N   24091.19601696  .00002466  00000+0  19758-3 0  9995
2 57416  42.9987 138.3606 0000744 246.3047 113.7717 15.02531403 39667
STARLINK-30043          
1 57417U 23102P   24091.52174896  .00014394  00000+0  10799-2 0  9998
2 57417  43.0013 136.5062 0001130 257.3989 102.6727 15.02484018 39716
STARLINK-30221          
1 57418U 23102Q   24091.52507786  .00013600  00000+0  10196-2 0  9997
2 57418  43.0018 136.5308 0000651 248.1995 111.8778 15.02545724 39717
STARLINK-30189          
1 57430U 23105A   24091.42517763  .00008371  00000+0  63375-3 0  9996
2 57430  43.0019 150.6409 0000973 273.0089  87.0642 15.02552060 38971
STARLINK-30170          
1 57431U 23105B   24091.55480126  .00000817  00000+0  75547-4 0  9995
2 57431  43.0025 149.8915 0001563 261.6754  98.3911 15.02536586 39047
STARLINK-30188          
1 57432U 23105C   24090.88669764  .00009613  00000+0  72568-3 0  9990
2 57432  43.0015 153.4795 0001010 261.9759  98.0969 15.02536294 38909
STARLINK-30105          
1 57433U 23105D   24091.10176050  .00080807  00000+0  27692-2 0  9999
2 57433  43.0016 109.9976 0000957 158.9788 201.1104 15.29245427 39536
STARLINK-30102          
1 57434U 23105E   24091.54481412  .00010846  00000+0  81647-3 0  9996
2 57434  43.0008 149.8143 0000962 278.5790  81.4943 15.02547342 39021
STARLINK-30180          
1 57435U 23105F   24091.54814263  .00010330  00000+0  77838-3 0  9996
2 57435  43.0007 149.8373 0001058 257.6281 102.4443 15.02548643 39132
STARLINK-30183          
1 57436U 23105G   24090.87671275 -.00000053  00000+0  11134-4 0  9996
2 57436  43.0010 153.4024 0001343 265.9709  94.0980 15.02530629 38940
STARLINK-30237          
1 57437U 23105H   24091.46834298  .00020734  00000+0  15448-2 0  9996
2 57437  43.0012 150.1001 0001154 255.4401 104.6313 15.02550587 39264
STARLINK-30158          
1 57438U 23105J   24091.53815446  .00004962  00000+0  38207-3 0  9993
2 57438  43.0022 149.7665 0001720 263.0215  97.0432 15.02538959 39045
STARLINK-30173          
1 57439U 23105K   24090.82705441  .00001248  00000+0  10739-3 0  9992
2 57439  43.0009 140.3122 0000998 277.6541  82.4188 15.02539563 39087
STARLINK-30159          
1 57440U 23105L   24091.19910078 -.00001832  00000+0 -12058-3 0  9996
2 57440  42.9990 151.5184 0000525 266.3951  93.6831 15.02534713 38848
STARLINK-30160          
1 57441U 23105M   24091.52816026  .00005558  00000+0  42604-3 0  9999
2 57441  42.9975 149.6890 0000474 313.4071  46.6731 15.02549797 38872
STARLINK-30146          
1 57442U 23105N   24091.52483558  .00004737  00000+0  36547-3 0  9997
2 57442  43.0017 149.6651 0001314 266.8089  93.2603 15.02541660 39105
STARLINK-30197          
1 57443U 23105P   24091.18911777  .00005994  00000+0  45838-3 0  9998
2 57443  43.0008 151.4447 0000947 288.5339  71.5400 15.02540117 39054
STARLINK-30181          
1 57444U 23105Q   24091.50818541  .00007116  00000+0  54120-3 0  9992
2 57444  43.0034 149.5408 0001558 270.4434  89.6230 15.02545271 39107
STARLINK-30215          
1 57445U 23105R   24091.50485453  .00004557  00000+0  35222-3 0  9993
2 57445  43.0014 149.5200 0001399 280.0771  79.9913 15.02533876 38848
STARLINK-30162          
1 57446U 23105S   24091.17276169  .00000422  00000+0  46288-4 0  9991
2 57446  43.0006 138.5860 0000981 280.1771  79.8961 15.02534910 39143
STARLINK-30178          
1 57447U 23105T   24091.17912544  .00005100  00000+0  39229-3 0  9990
2 57447  43.0000 151.3711 0001633 293.2464  66.8206 15.02542655 38990
STARLINK-30196          
1 57448U 23105U   24091.16914427  .00018113  00000+0  13520-2 0  9995
2 57448  43.0009 151.2947 0002104 268.6637  91.3965 15.02547583 38824
STARLINK-30225          
1 57449U 23105V   24091.49819755  .00004194  00000+0  32537-3 0  9994
2 57449  43.0019 149.4655 0001330 263.4043  96.6648 15.02536533 39139
STARLINK-30217          
1 57450U 23105W   24091.48852623  .00022087  00000+0  16448-2 0  9999
2 57450  43.0010 136.7046 0001168 284.1126  75.9586 15.02539106 39192
STARLINK-30216          
1 57451U 23105X   24091.42838790 -.00001914  00000+0 -12671-3 0  9996
2 57451  43.0016 149.8152 0000958 258.9947 101.0788 15.02529516 38882
STARLINK-30165          
1 57457U 23107A   24091.45674554  .00041956  00000+0  31014-2 0  9992
2 57457  43.0043 227.5793 0001951 266.0271  94.0348 15.02547644 38231
STARLINK-30140          
1 57458U 23107B   24090.65568038  .00001559  00000+0  13047-3 0  9995
2 57458  43.0023 231.8878 0001776 269.4428  90.6211 15.02533892 38453
STARLINK-30185          
1 57459U 23107C   24090.65235819  .00002881  00000+0  22827-3 0  9999
2 57459  43.0032 231.8610 0001400 275.0528  85.0154 15.02536204 38450
STARLINK-30077          
1 57460U 23107D   24091.51323647  .00004839  00000+0  37301-3 0  9992
2 57460  43.0000 227.1401 0001057 312.0343  48.0409 15.02541075 38575
STARLINK-30229          
1 57461U 23107E   24091.52655792  .00008423  00000+0  63768-3 0  9992
2 57461  42.9986 227.2338 0001012 256.8359 103.2370 15.02546550 38563
STARLINK-30088          
1 57462U 23107F   24091.50990674  .00002259  00000+0  18221-3 0  9997
2 57462  43.0027 227.1105 0001604 258.8155 101.2507 15.02538416 38568
STARLINK-30091          
1 57463U 23107G   24091.43677202  .00015142  00000+0  11332-2 0  9999
2 57463  43.0015 227.4231 0001314 278.1647  81.9046 15.02548704 38561
STARLINK-30115          
1 57464U 23107H   24091.09581770  .00035325  00000+0  25426-2 0  9990
2 57464  43.0003 229.1434 0002551 317.5947  42.4698 15.03620240 38504
STARLINK-30116          
1 57465U 23107J   24091.37140013  .00008592  00000+0  65017-3 0  9990
2 57465  43.0006 227.7900 0001929 268.1851  91.8771 15.02546212 38441
STARLINK-30092          
1 57467U 23107L   24091.09771287  .00032938  00000+0  24394-2 0  9997
2 57467  43.0013 229.1776 0001695 256.0435 104.0219 15.02574292 38591
STARLINK-30039          
1 57468U 23107M   24090.82848106  .00009710  00000+0  73288-3 0  9992
2 57468  43.0011 230.5969 0001315 277.9045  82.1648 15.02536849 38484
